1 29155U 06018A   11012.35409172 -.00000234  00000-0  10000-3 0  4341
2 29155 000.3646 078.7762 0002260 346.7259 098.6633 01.00273621 17012